{
    "links": {
        "self": "http://www.neowsapp.com/rest/v1/neo/3892659?api_key=iIulBulltgU6a56xZRHN4H3l9WmuAYTsLGpBGhQ2"
    },
    "id": "3892659",
    "neo_reference_id": "3892659",
    "name": "(2019 VM2)",
    "designation": "2019 VM2",
    "nasa_jpl_url": "http://ssd.jpl.nasa.gov/sbdb.cgi?sstr=3892659",
    "absolute_magnitude_h": 26.9,
    "estimated_diameter": {
        "kilometers": {
            "estimated_diameter_min": 0.0110803882,
            "estimated_diameter_max": 0.0247765013
        },
        "meters": {
            "estimated_diameter_min": 11.0803882126,
            "estimated_diameter_max": 24.7765012606
        },
        "miles": {
            "estimated_diameter_min": 0.0068850319,
            "estimated_diameter_max": 0.0153953994
        },
        "feet": {
            "estimated_diameter_min": 36.3529808636,
            "estimated_diameter_max": 81.2877363957
        }
    },
    "is_potentially_hazardous_asteroid": false,
    "close_approach_data": [
        {
            "close_approach_date": "1952-11-17",
            "close_approach_date_full": "1952-Nov-17 06:04",
            "epoch_date_close_approach": -540323760000,
            "relative_velocity": {
                "kilometers_per_second": "19.8496804336",
                "kilometers_per_hour": "71458.8495608311",
                "miles_per_hour": "44401.7501618398"
            },
            "miss_distance": {
                "astronomical": "0.3142721651",
                "lunar": "122.2518722239",
                "kilometers": "47014446.499248337",
                "miles": "29213422.4102355706"
            },
            "orbiting_body": "Earth"
        },
        {
            "close_approach_date": "2019-05-29",
            "close_approach_date_full": "2019-May-29 15:38",
            "epoch_date_close_approach": 1559144280000,
            "relative_velocity": {
                "kilometers_per_second": "13.5092393008",
                "kilometers_per_hour": "48633.2614827371",
                "miles_per_hour": "30218.8173918707"
            },
            "miss_distance": {
                "astronomical": "0.4016459999",
                "lunar": "156.2402939611",
                "kilometers": "60085386.079060213",
                "miles": "37335327.6473804194"
            },
            "orbiting_body": "Earth"
        },
        {
            "close_approach_date": "2019-11-03",
            "close_approach_date_full": "2019-Nov-03 15:50",
            "epoch_date_close_approach": 1572796200000,
            "relative_velocity": {
                "kilometers_per_second": "15.0614687263",
                "kilometers_per_hour": "54221.287414568",
                "miles_per_hour": "33690.9993937909"
            },
            "miss_distance": {
                "astronomical": "0.0092803689",
                "lunar": "3.6100635021",
                "kilometers": "1388323.420254243",
                "miles": "862664.1710768334"
            },
            "orbiting_body": "Earth"
        },
        {
            "close_approach_date": "2019-11-03",
            "close_approach_date_full": "2019-Nov-03 17:47",
            "epoch_date_close_approach": 1572803220000,
            "relative_velocity": {
                "kilometers_per_second": "14.7240602816",
                "kilometers_per_hour": "53006.617013931",
                "miles_per_hour": "32936.2504440173"
            },
            "miss_distance": {
                "astronomical": "0.0095980909",
                "lunar": "3.7336573601",
                "kilometers": "1435853.954706383",
                "miles": "892198.2756707654"
            },
            "orbiting_body": "Moon"
        }
    ],
    "orbital_data": {
        "orbit_id": "1",
        "orbit_determination_date": "2019-11-05 09:12:03",
        "first_observation_date": "2019-11-04",
        "last_observation_date": "2019-11-05",
        "data_arc_in_days": 1,
        "observations_used": 18,
        "orbit_uncertainty": "8",
        "minimum_orbit_intersection": ".009132",
        "jupiter_tisserand_invariant": "4.964",
        "epoch_osculation": "2458791.5",
        "eccentricity": ".2390573584512837",
        "semi_major_axis": "1.267860630609477",
        "inclination": "26.28899294305405",
        "ascending_node_longitude": "220.8818125754452",
        "orbital_period": "521.4416309416326",
        "perihelion_distance": ".9647692173715964",
        "perihelion_argument": "144.0949927359635",
        "aphelion_distance": "1.570952043847357",
        "perihelion_time": "2458759.675706401560",
        "mean_anomaly": "21.97129077467312",
        "mean_motion": ".690393667551827",
        "equinox": "J2000",
        "orbit_class": {
            "orbit_class_type": "APO",
            "orbit_class_description": "Near-Earth asteroid orbits which cross the Earth’s orbit similar to that of 1862 Apollo",
            "orbit_class_range": "a (semi-major axis) > 1.0 AU; q (perihelion) < 1.017 AU"
        }
    },
    "is_sentry_object": false
}